{
  "type": "FeatureCollection",
  "features": [
    {
      "type": "Feature",
      "properties": {
        "norad_id": 66696,
        "name": "IRIDE FM2",
        "group": "last-30-days",
        "lat": -45.43876177785068,
        "lon": 74.92347303865627,
        "alt_km": 519.2004664515143,
        "timestamp": "2025-12-21T16:47:53.449014+00:00",
        "meta_object_name": "IRIDE FM2",
        "meta_object_id": "2025-276AG",
        "meta_epoch": "2025-12-21T12:15:07.943040",
        "meta_mean_motion": 15.17389261,
        "meta_eccentricity": 0.0002478,
        "meta_inclination": 97.4397,
        "meta_ra_of_asc_node": 67.1124,
        "meta_arg_of_pericenter": 275.5585,
        "meta_mean_anomaly": 84.5365,
        "meta_ephemeris_type": 0,
        "meta_classification_type": "U",
        "meta_norad_cat_id": 66696,
        "meta_element_set_no": 999,
        "meta_rev_at_epoch": 345,
        "meta_bstar": 0.00041742,
        "meta_mean_motion_dot": 8.277e-05,
        "meta_mean_motion_ddot": 0,
        "tle_line1": "1 66696U 25276AG  25355.51050860  .00008277  00000+0  41742-3 0  9994",
        "tle_line2": "2 66696  97.4397  67.1124 0002478 275.5585  84.5365 15.17389261  3459"
      },
      "geometry": {
        "type": "Point",
        "coordinates": [
          74.92347303865627,
          -45.43876177785068
        ]
      }
    },
    {
      "type": "Feature",
      "properties": {
        "norad_id": 66697,
        "name": "IRIDE FM3",
        "group": "last-30-days",
        "lat": 15.362981214849892,
        "lon": 65.26756420783667,
        "alt_km": 512.9432140425788,
        "timestamp": "2025-12-21T16:47:53.449024+00:00",
        "meta_object_name": "IRIDE FM3",
        "meta_object_id": "2025-276AH",
        "meta_epoch": "2025-12-21T10:24:09.139104",
        "meta_mean_motion": 15.18135979,
        "meta_eccentricity": 0.00011,
        "meta_inclination": 97.4395,
        "meta_ra_of_asc_node": 67.063,
        "meta_arg_of_pericenter": 159.0128,
        "meta_mean_anomaly": 201.1152,
        "meta_ephemeris_type": 0,
        "meta_classification_type": "U",
        "meta_norad_cat_id": 66697,
        "meta_element_set_no": 999,
        "meta_rev_at_epoch": 344,
        "meta_bstar": 0.00042667,
        "meta_mean_motion_dot": 8.646e-05,
        "meta_mean_motion_ddot": 0,
        "tle_line1": "1 66697U 25276AH  25355.43343911  .00008646  00000+0  42667-3 0  9995",
        "tle_line2": "2 66697  97.4395  67.0630 0001100 159.0128 201.1152 15.18135979  3445"
      },
      "geometry": {
        "type": "Point",
        "coordinates": [
          65.26756420783667,
          15.362981214849892
        ]
      }
    },
    {
      "type": "Feature",
      "properties": {
        "norad_id": 66698,
        "name": "IRIDE FM4",
        "group": "last-30-days",
        "lat": -49.791368546576834,
        "lon": 76.18989402478978,
        "alt_km": 519.5424139698353,
        "timestamp": "2025-12-21T16:47:53.449036+00:00",
        "meta_object_name": "IRIDE FM4",
        "meta_object_id": "2025-276AJ",
        "meta_epoch": "2025-12-21T07:31:23.796768",
        "meta_mean_motion": 15.17313323,
        "meta_eccentricity": 0.0002679,
        "meta_inclination": 97.4396,
        "meta_ra_of_asc_node": 66.9179,
        "meta_arg_of_pericenter": 267.6759,
        "meta_mean_anomaly": 92.4168,
        "meta_ephemeris_type": 0,
        "meta_classification_type": "U",
        "meta_norad_cat_id": 66698,
        "meta_element_set_no": 999,
        "meta_rev_at_epoch": 342,
        "meta_bstar": 0.00042492,
        "meta_mean_motion_dot": 8.409e-05,
        "meta_mean_motion_ddot": 0,
        "tle_line1": "1 66698U 25276AJ  25355.31346987  .00008409  00000+0  42492-3 0  9992",
        "tle_line2": "2 66698  97.4396  66.9179 0002679 267.6759  92.4168 15.17313323  3427"
      },
      "geometry": {
        "type": "Point",
        "coordinates": [
          76.18989402478978,
          -49.791368546576834
        ]
      }
    },
    {
      "type": "Feature",
      "properties": {
        "norad_id": 66699,
        "name": "IRIDE FM5",
        "group": "last-30-days",
        "lat": -48.96245057243609,
        "lon": 75.94171993704099,
        "alt_km": 519.6360653697775,
        "timestamp": "2025-12-21T16:47:53.449047+00:00",
        "meta_object_name": "IRIDE FM5",
        "meta_object_id": "2025-276AK",
        "meta_epoch": "2025-12-21T12:16:04.408032",
        "meta_mean_motion": 15.17328524,
        "meta_eccentricity": 0.0004801,
        "meta_inclination": 97.444,
        "meta_ra_of_asc_node": 67.1171,
        "meta_arg_of_pericenter": 242.2933,
        "meta_mean_anomaly": 117.7814,
        "meta_ephemeris_type": 0,
        "meta_classification_type": "U",
        "meta_norad_cat_id": 66699,
        "meta_element_set_no": 999,
        "meta_rev_at_epoch": 345,
        "meta_bstar": 0.00028485,
        "meta_mean_motion_dot": 5.616e-05,
        "meta_mean_motion_ddot": 0,
        "tle_line1": "1 66699U 25276AK  25355.51116213  .00005616  00000+0  28485-3 0  9995",
        "tle_line2": "2 66699  97.4440  67.1171 0004801 242.2933 117.7814 15.17328524  3456"
      },
      "geometry": {
        "type": "Point",
        "coordinates": [
          75.94171993704099,
          -48.96245057243609
        ]
      }
    },
    {
      "type": "Feature",
      "properties": {
        "norad_id": 66700,
        "name": "IRIDE FM6",
        "group": "last-30-days",
        "lat": 18.535840148662892,
        "lon": 64.82382763561121,
        "alt_km": 512.576851937245,
        "timestamp": "2025-12-21T16:47:53.449059+00:00",
        "meta_object_name": "IRIDE FM6",
        "meta_object_id": "2025-276AL",
        "meta_epoch": "2025-12-21T10:23:19.273344",
        "meta_mean_motion": 15.1818801,
        "meta_eccentricity": 0.0001529,
        "meta_inclination": 97.4428,
        "meta_ra_of_asc_node": 67.0733,
        "meta_arg_of_pericenter": 167.052,
        "meta_mean_anomaly": 193.0754,
        "meta_ephemeris_type": 0,
        "meta_classification_type": "U",
        "meta_norad_cat_id": 66700,
        "meta_element_set_no": 999,
        "meta_rev_at_epoch": 344,
        "meta_bstar": 0.00041792,
        "meta_mean_motion_dot": 8.48e-05,
        "meta_mean_motion_ddot": 0,
        "tle_line1": "1 66700U 25276AL  25355.43286196  .00008480  00000+0  41792-3 0  9995",
        "tle_line2": "2 66700  97.4428  67.0733 0001529 167.0520 193.0754 15.18188010  3442"
      },
      "geometry": {
        "type": "Point",
        "coordinates": [
          64.82382763561121,
          18.535840148662892
        ]
      }
    },
    {
      "type": "Feature",
      "properties": {
        "norad_id": 66701,
        "name": "IRIDE FM7",
        "group": "last-30-days",
        "lat": -49.35938226570158,
        "lon": 76.06506720489948,
        "alt_km": 521.0403027428638,
        "timestamp": "2025-12-21T16:47:53.449071+00:00",
        "meta_object_name": "IRIDE FM7",
        "meta_object_id": "2025-276AM",
        "meta_epoch": "2025-12-21T12:16:08.273568",
        "meta_mean_motion": 15.17123308,
        "meta_eccentricity": 0.0002041,
        "meta_inclination": 97.4408,
        "meta_ra_of_asc_node": 67.1217,
        "meta_arg_of_pericenter": 246.0122,
        "meta_mean_anomaly": 114.0898,
        "meta_ephemeris_type": 0,
        "meta_classification_type": "U",
        "meta_norad_cat_id": 66701,
        "meta_element_set_no": 999,
        "meta_rev_at_epoch": 345,
        "meta_bstar": -0.0071121,
        "meta_mean_motion_dot": -0.00138346,
        "meta_mean_motion_ddot": 0,
        "tle_line1": "1 66701U 25276AM  25355.51120687 -.00138346  00000+0 -71121-2 0  9992",
        "tle_line2": "2 66701  97.4408  67.1217 0002041 246.0122 114.0898 15.17123308  3456"
      },
      "geometry": {
        "type": "Point",
        "coordinates": [
          76.06506720489948,
          -49.35938226570158
        ]
      }
    },
    {
      "type": "Feature",
      "properties": {
        "norad_id": 66702,
        "name": "IRIDE FM8",
        "group": "last-30-days",
        "lat": -48.0816081132271,
        "lon": 75.67010123065974,
        "alt_km": 519.2281636797388,
        "timestamp": "2025-12-21T16:47:53.449080+00:00",
        "meta_object_name": "IRIDE FM8",
        "meta_object_id": "2025-276AN",
        "meta_epoch": "2025-12-21T10:40:52.580064",
        "meta_mean_motion": 15.17360953,
        "meta_eccentricity": 0.0002819,
        "meta_inclination": 97.4406,
        "meta_ra_of_asc_node": 67.05,
        "meta_arg_of_pericenter": 271.4009,
        "meta_mean_anomaly": 88.6901,
        "meta_ephemeris_type": 0,
        "meta_classification_type": "U",
        "meta_norad_cat_id": 66702,
        "meta_element_set_no": 999,
        "meta_rev_at_epoch": 344,
        "meta_bstar": 0.00039072,
        "meta_mean_motion_dot": 7.737e-05,
        "meta_mean_motion_ddot": 0,
        "tle_line1": "1 66702U 25276AN  25355.44505301  .00007737  00000+0  39072-3 0  9992",
        "tle_line2": "2 66702  97.4406  67.0500 0002819 271.4009  88.6901 15.17360953  3447"
      },
      "geometry": {
        "type": "Point",
        "coordinates": [
          75.67010123065974,
          -48.0816081132271
        ]
      }
    }
  ]
}